start=new Date('2022-11-20T00:00:00.000Z').valueOf();
sats=[{"ELEMENT_SET_NO":"999","APOAPSIS":"565.217","EPOCH":"2022-11-19T18:36:43.315776","BSTAR":"0.00010111000000","NORAD_CAT_ID":"53086","TLE_LINE2":"2 53086  97.6548 142.8680 0003202  14.7828 345.3490 15.01265712 19995","MEAN_ANOMALY":"345.3490","COUNTRY_CODE":"US","REV_AT_EPOCH":"1999","OBJECT_ID":"2022-077AV","DECAY_DATE":null,"GP_ID":"218239523","MEAN_ELEMENT_THEORY":"SGP4","RCS_SIZE":"LARGE","MEAN_MOTION_DDOT":"0.0000000000000","ARG_OF_PERICENTER":"14.7828","MEAN_MOTION":"15.01265712","CLASSIFICATION_TYPE":"U","RA_OF_ASC_NODE":"142.8680","EPHEMERIS_TYPE":"0","SEMIMAJOR_AXIS":"6941.129","PERIOD":"95.919","PERIAPSIS":"560.772","OBJECT_NAME":"STARLINK-4318","REF_FRAME":"TEME","ECCENTRICITY":"0.00032020","INCLINATION":"97.6548","TIME_SYSTEM":"UTC","OBJECT_TYPE":"PAYLOAD","CENTER_NAME":"EARTH","MEAN_MOTION_DOT":"0.00001240","SITE":"AFWTR","TLE_LINE1":"1 53086U 22077AV  22323.77550134  .00001240  00000-0  10111-3 0  9998","FILE":"3663561","LAUNCH_DATE":"2022-07-11"},{"CLASSIFICATION_TYPE":"U","RA_OF_ASC_NODE":"142.9251","ARG_OF_PERICENTER":"12.6128","MEAN_MOTION":"15.01271107","MEAN_MOTION_DDOT":"0.0000000000000","REV_AT_EPOCH":"2000","OBJECT_ID":"2022-077AW","DECAY_DATE":null,"GP_ID":"218239367","MEAN_ELEMENT_THEORY":"SGP4","RCS_SIZE":"LARGE","MEAN_ANOMALY":"347.5180","COUNTRY_CODE":"US","EPOCH":"2022-11-19T20:05:03.417504","APOAPSIS":"565.313","NORAD_CAT_ID":"53087","BSTAR":"0.00026533000000","TLE_LINE2":"2 53087  97.6529 142.9251 0003364  12.6128 347.5180 15.01271107 20008","ELEMENT_SET_NO":"999","LAUNCH_DATE":"2022-07-11","TLE_LINE1":"1 53087U 22077AW  22323.83684511  .00003352  00000-0  26533-3 0  9994","FILE":"3663561","SITE":"AFWTR","CENTER_NAME":"EARTH","MEAN_MOTION_DOT":"0.00003352","TIME_SYSTEM":"UTC","OBJECT_TYPE":"PAYLOAD","REF_FRAME":"TEME","ECCENTRICITY":"0.00033640","INCLINATION":"97.6529","PERIAPSIS":"560.643","OBJECT_NAME":"STARLINK-4329","SEMIMAJOR_AXIS":"6941.113","EPHEMERIS_TYPE":"0","PERIOD":"95.919"},{"ELEMENT_SET_NO":"999","TLE_LINE2":"2 53088  97.6553 142.8642 0003336  18.2855 341.8489 15.01259417 19992","EPOCH":"2022-11-19T18:31:23.840544","APOAPSIS":"565.329","BSTAR":"0.00003354100000","NORAD_CAT_ID":"53088","COUNTRY_CODE":"US","MEAN_ANOMALY":"341.8489","GP_ID":"218238886","MEAN_ELEMENT_THEORY":"SGP4","RCS_SIZE":"LARGE","REV_AT_EPOCH":"1999","DECAY_DATE":null,"OBJECT_ID":"2022-077AX","MEAN_MOTION_DDOT":"0.0000000000000","ARG_OF_PERICENTER":"18.2855","MEAN_MOTION":"15.01259417","RA_OF_ASC_NODE":"142.8642","CLASSIFICATION_TYPE":"U","PERIOD":"95.919","SEMIMAJOR_AXIS":"6941.149","EPHEMERIS_TYPE":"0","OBJECT_NAME":"STARLINK-4333","PERIAPSIS":"560.698","INCLINATION":"97.6553","REF_FRAME":"TEME","ECCENTRICITY":"0.00033360","OBJECT_TYPE":"PAYLOAD","TIME_SYSTEM":"UTC","MEAN_MOTION_DOT":"0.00000372","CENTER_NAME":"EARTH","SITE":"AFWTR","FILE":"3663561","TLE_LINE1":"1 53088U 22077AX  22323.77180371  .00000372  00000-0  33541-4 0  9990","LAUNCH_DATE":"2022-07-11"},{"SITE":"AFETR","MEAN_MOTION_DOT":"0.00000443","CENTER_NAME":"EARTH","LAUNCH_DATE":"2022-07-17","FILE":"3663561","TLE_LINE1":"1 53132U 22083A   22323.63430793  .00000443  00000-0  45947-4 0  9990","OBJECT_NAME":"STARLINK-4063","PERIAPSIS":"538.289","PERIOD":"95.437","EPHEMERIS_TYPE":"0","SEMIMAJOR_AXIS":"6917.860","OBJECT_TYPE":"PAYLOAD","TIME_SYSTEM":"UTC","INCLINATION":"53.2177","REF_FRAME":"TEME","ECCENTRICITY":"0.00020770","MEAN_MOTION_DDOT":"0.0000000000000","RA_OF_ASC_NODE":"188.3248","CLASSIFICATION_TYPE":"U","ARG_OF_PERICENTER":"38.7799","MEAN_MOTION":"15.08846523","TLE_LINE2":"2 53132  53.2177 188.3248 0002077  38.7799 321.3342 15.08846523 19149","APOAPSIS":"541.162","EPOCH":"2022-11-19T15:13:24.205152","BSTAR":"0.00004594700000","NORAD_CAT_ID":"53132","ELEMENT_SET_NO":"999","MEAN_ELEMENT_THEORY":"SGP4","GP_ID":"218239526","RCS_SIZE":"LARGE","REV_AT_EPOCH":"1914","OBJECT_ID":"2022-083A","DECAY_DATE":null,"COUNTRY_CODE":"US","MEAN_ANOMALY":"321.3342"},{"SITE":"AFETR","CENTER_NAME":"EARTH","MEAN_MOTION_DOT":"0.00000343","LAUNCH_DATE":"2022-07-17","FILE":"3663385","TLE_LINE1":"1 53133U 22083B   22323.65270703  .00000343  00000-0  39644-4 0  9992","OBJECT_NAME":"STARLINK-4154","PERIAPSIS":"538.303","PERIOD":"95.437","EPHEMERIS_TYPE":"0","SEMIMAJOR_AXIS":"6917.855","OBJECT_TYPE":"PAYLOAD","TIME_SYSTEM":"UTC","INCLINATION":"53.2150","REF_FRAME":"TEME","ECCENTRICITY":"0.00020480","MEAN_MOTION_DDOT":"0.0000000000000","RA_OF_ASC_NODE":"188.2394","CLASSIFICATION_TYPE":"U","ARG_OF_PERICENTER":"50.3119","MEAN_MOTION":"15.08848271","TLE_LINE2":"2 53133  53.2150 188.2394 0002048  50.3119 309.8053 15.08848271 19777","EPOCH":"2022-11-19T15:39:53.887392","APOAPSIS":"541.137","NORAD_CAT_ID":"53133","BSTAR":"0.00003964400000","ELEMENT_SET_NO":"999","GP_ID":"218210581","MEAN_ELEMENT_THEORY":"SGP4","RCS_SIZE":"LARGE","REV_AT_EPOCH":"1977","OBJECT_ID":"2022-083B","DECAY_DATE":null,"COUNTRY_CODE":"US","MEAN_ANOMALY":"309.8053"},{"DECAY_DATE":null,"OBJECT_ID":"2022-083C","REV_AT_EPOCH":"1917","RCS_SIZE":"LARGE","MEAN_ELEMENT_THEORY":"SGP4","GP_ID":"218238889","MEAN_ANOMALY":"326.3570","COUNTRY_CODE":"US","NORAD_CAT_ID":"53134","BSTAR":"0.00006010500000","APOAPSIS":"541.478","EPOCH":"2022-11-19T20:10:09.612192","TLE_LINE2":"2 53134  53.2148 187.3814 0002517  33.7582 326.3570 15.08842931 19171","ELEMENT_SET_NO":"999","CLASSIFICATION_TYPE":"U","RA_OF_ASC_NODE":"187.3814","MEAN_MOTION":"15.08842931","ARG_OF_PERICENTER":"33.7582","MEAN_MOTION_DDOT":"0.0000000000000","TIME_SYSTEM":"UTC","OBJECT_TYPE":"PAYLOAD","ECCENTRICITY":"0.00025170","REF_FRAME":"TEME","INCLINATION":"53.2148","PERIAPSIS":"537.995","OBJECT_NAME":"STARLINK-4150","SEMIMAJOR_AXIS":"6917.871","EPHEMERIS_TYPE":"0","PERIOD":"95.437","LAUNCH_DATE":"2022-07-17","TLE_LINE1":"1 53134U 22083C   22323.84038903  .00000668  00000-0  60105-4 0  9994","FILE":"3663561","SITE":"AFETR","MEAN_MOTION_DOT":"0.00000668","CENTER_NAME":"EARTH"},{"FILE":"3663316","TLE_LINE1":"1 53135U 22083D   22323.05286820  .00002184  00000-0  15527-3 0  9993","LAUNCH_DATE":"2022-07-17","MEAN_MOTION_DOT":"0.00002184","CENTER_NAME":"EARTH","SITE":"AFETR","INCLINATION":"53.2171","ECCENTRICITY":"0.00025090","REF_FRAME":"TEME","OBJECT_TYPE":"PAYLOAD","TIME_SYSTEM":"UTC","PERIOD":"95.437","SEMIMAJOR_AXIS":"6917.860","EPHEMERIS_TYPE":"0","OBJECT_NAME":"STARLINK-4023","PERIAPSIS":"537.989","MEAN_MOTION":"15.08846776","ARG_OF_PERICENTER":"37.0256","RA_OF_ASC_NODE":"190.9331","CLASSIFICATION_TYPE":"U","MEAN_MOTION_DDOT":"0.0000000000000","COUNTRY_CODE":"US","MEAN_ANOMALY":"323.0909","RCS_SIZE":"LARGE","MEAN_ELEMENT_THEORY":"SGP4","GP_ID":"218207776","DECAY_DATE":null,"OBJECT_ID":"2022-083D","REV_AT_EPOCH":"2004","ELEMENT_SET_NO":"999","TLE_LINE2":"2 53135  53.2171 190.9331 0002509  37.0256 323.0909 15.08846776 20047","NORAD_CAT_ID":"53135","BSTAR":"0.00015527000000","APOAPSIS":"541.460","EPOCH":"2022-11-19T01:16:07.812480"},{"MEAN_MOTION_DOT":"0.00000776","CENTER_NAME":"EARTH","SITE":"AFETR","TLE_LINE1":"1 53136U 22083E   22323.64535357  .00000776  00000-0  66885-4 0  9990","FILE":"3663385","LAUNCH_DATE":"2022-07-17","EPHEMERIS_TYPE":"0","SEMIMAJOR_AXIS":"6917.895","PERIOD":"95.438","PERIAPSIS":"538.205","OBJECT_NAME":"STARLINK-4152","ECCENTRICITY":"0.00022470","REF_FRAME":"TEME","INCLINATION":"53.2163","TIME_SYSTEM":"UTC","OBJECT_TYPE":"PAYLOAD","MEAN_MOTION_DDOT":"0.0000000000000","MEAN_MOTION":"15.08835284","ARG_OF_PERICENTER":"36.5692","CLASSIFICATION_TYPE":"U","RA_OF_ASC_NODE":"188.2737","ELEMENT_SET_NO":"999","BSTAR":"0.00006688500000","NORAD_CAT_ID":"53136","APOAPSIS":"541.314","EPOCH":"2022-11-19T15:29:18.548448","TLE_LINE2":"2 53136  53.2163 188.2737 0002247  36.5692 323.5454 15.08835284 19776","MEAN_ANOMALY":"323.5454","COUNTRY_CODE":"US","DECAY_DATE":null,"OBJECT_ID":"2022-083E","REV_AT_EPOCH":"1977","RCS_SIZE":"LARGE","MEAN_ELEMENT_THEORY":"SGP4","GP_ID":"218210574"},{"SITE":"AFETR","CENTER_NAME":"EARTH","MEAN_MOTION_DOT":"0.00004051","LAUNCH_DATE":"2022-07-17","FILE":"3663561","TLE_LINE1":"1 53137U 22083F   22323.83671505  .00004051  00000-0  27244-3 0  9993","OBJECT_NAME":"STARLINK-4145","PERIAPSIS":"538.099","PERIOD":"95.437","EPHEMERIS_TYPE":"0","SEMIMAJOR_AXIS":"6917.853","OBJECT_TYPE":"PAYLOAD","TIME_SYSTEM":"UTC","INCLINATION":"53.2169","REF_FRAME":"TEME","ECCENTRICITY":"0.00023390","MEAN_MOTION_DDOT":"0.0000000000000","RA_OF_ASC_NODE":"187.4206","CLASSIFICATION_TYPE":"U","ARG_OF_PERICENTER":"39.0011","MEAN_MOTION":"15.08849107","TLE_LINE2":"2 53137  53.2169 187.4206 0002339  39.0011 321.1149 15.08849107 19178","EPOCH":"2022-11-19T20:04:52.180320","APOAPSIS":"541.336","NORAD_CAT_ID":"53137","BSTAR":"0.00027244000000","ELEMENT_SET_NO":"999","MEAN_ELEMENT_THEORY":"SGP4","GP_ID":"218239687","RCS_SIZE":"LARGE","REV_AT_EPOCH":"1917","OBJECT_ID":"2022-083F","DECAY_DATE":null,"COUNTRY_CODE":"US","MEAN_ANOMALY":"321.1149"},{"PERIOD":"95.437","EPHEMERIS_TYPE":"0","SEMIMAJOR_AXIS":"6917.864","OBJECT_NAME":"STARLINK-4141","PERIAPSIS":"537.971","INCLINATION":"53.2174","REF_FRAME":"TEME","ECCENTRICITY":"0.00025410","OBJECT_TYPE":"PAYLOAD","TIME_SYSTEM":"UTC","CENTER_NAME":"EARTH","MEAN_MOTION_DOT":"0.00000601","SITE":"AFETR","FILE":"3663561","TLE_LINE1":"1 53138U 22083G   22323.88412868  .00000601  00000-0  55896-4 0  9996","LAUNCH_DATE":"2022-07-17","ELEMENT_SET_NO":"999","TLE_LINE2":"2 53138  53.2174 182.1866 0002541  38.7149 321.4024 15.08845395 20028","APOAPSIS":"541.487","EPOCH":"2022-11-19T21:13:08.717952","BSTAR":"0.00005589600000","NORAD_CAT_ID":"53138","COUNTRY_CODE":"US","MEAN_ANOMALY":"321.4024","MEAN_ELEMENT_THEORY":"SGP4","GP_ID":"218238546","RCS_SIZE":"LARGE","REV_AT_EPOCH":"2002","DECAY_DATE":null,"OBJECT_ID":"2022-083G","MEAN_MOTION_DDOT":"0.0000000000000","ARG_OF_PERICENTER":"38.7149","MEAN_MOTION":"15.08845395","RA_OF_ASC_NODE":"182.1866","CLASSIFICATION_TYPE":"U"}];
